start=new Date('2023-03-10T00:00:00.000Z').valueOf();
sats=[{"SEMIMAJOR_AXIS":"6917.817","TLE_LINE1":"1 53605U 22104T   23068.85132945  .00008470  00000-0  54933-3 0  9990","ECCENTRICITY":"0.00016050","SITE":"AFETR","GP_ID":"227770364","TLE_LINE2":"2 53605  53.2147 123.3071 0001605  79.5069 280.6104 15.08860592 30185","REF_FRAME":"TEME","OBJECT_TYPE":"PAYLOAD","APOAPSIS":"540.793","OBJECT_NAME":"STARLINK-4693","FILE":"3855951","MEAN_MOTION":"15.08860592","EPHEMERIS_TYPE":"0","BSTAR":"0.00054933000000","PERIAPSIS":"538.572","EPOCH":"2023-03-09T20:25:54.864480","TIME_SYSTEM":"UTC","CLASSIFICATION_TYPE":"U","INCLINATION":"53.2147","MEAN_ELEMENT_THEORY":"SGP4","PERIOD":"95.436","COUNTRY_CODE":"US","LAUNCH_DATE":"2022-08-28","REV_AT_EPOCH":"3018","MEAN_MOTION_DOT":"0.00008470","RA_OF_ASC_NODE":"123.3071","RCS_SIZE":"LARGE","MEAN_MOTION_DDOT":"0.0000000000000","NORAD_CAT_ID":"53605","ELEMENT_SET_NO":"999","DECAY_DATE":null,"ARG_OF_PERICENTER":"79.5069","CENTER_NAME":"EARTH","MEAN_ANOMALY":"280.6104","OBJECT_ID":"2022-104T"},{"ARG_OF_PERICENTER":"78.5732","CENTER_NAME":"EARTH","MEAN_ANOMALY":"281.5436","OBJECT_ID":"2022-104U","ELEMENT_SET_NO":"999","NORAD_CAT_ID":"53606","MEAN_MOTION_DDOT":"0.0000000000000","DECAY_DATE":null,"RA_OF_ASC_NODE":"113.8027","MEAN_MOTION_DOT":"0.00010565","RCS_SIZE":"LARGE","PERIOD":"95.438","MEAN_ELEMENT_THEORY":"SGP4","COUNTRY_CODE":"US","LAUNCH_DATE":"2022-08-28","REV_AT_EPOCH":"3019","BSTAR":"0.00068088000000","PERIAPSIS":"538.660","EPOCH":"2023-03-09T19:34:18.037920","CLASSIFICATION_TYPE":"U","TIME_SYSTEM":"UTC","INCLINATION":"53.2164","APOAPSIS":"540.833","OBJECT_NAME":"STARLINK-4590","EPHEMERIS_TYPE":"0","MEAN_MOTION":"15.08839668","FILE":"3855951","TLE_LINE2":"2 53606  53.2164 113.8027 0001571  78.5732 281.5436 15.08839668 30197","GP_ID":"227771111","REF_FRAME":"TEME","OBJECT_TYPE":"PAYLOAD","SEMIMAJOR_AXIS":"6917.881","TLE_LINE1":"1 53606U 22104U   23068.81548655  .00010565  00000-0  68088-3 0  9990","SITE":"AFETR","ECCENTRICITY":"0.00015710"},{"REV_AT_EPOCH":"3020","LAUNCH_DATE":"2022-08-28","COUNTRY_CODE":"US","PERIOD":"95.434","MEAN_ELEMENT_THEORY":"SGP4","RCS_SIZE":"LARGE","MEAN_MOTION_DOT":"0.00051024","RA_OF_ASC_NODE":"119.9584","DECAY_DATE":null,"ELEMENT_SET_NO":"999","MEAN_MOTION_DDOT":"0.0000000000000","NORAD_CAT_ID":"53607","OBJECT_ID":"2022-104V","MEAN_ANOMALY":"267.3802","CENTER_NAME":"EARTH","ARG_OF_PERICENTER":"92.7336","ECCENTRICITY":"0.00012670","SITE":"AFETR","SEMIMAJOR_AXIS":"6917.714","TLE_LINE1":"1 53607U 22104V   23068.54453679  .00051024  00000-0  31962-2 0  9997","OBJECT_TYPE":"PAYLOAD","REF_FRAME":"TEME","GP_ID":"227771866","TLE_LINE2":"2 53607  53.2134 119.9584 0001267  92.7336 267.3802 15.08894400 30206","EPHEMERIS_TYPE":"0","FILE":"3855951","MEAN_MOTION":"15.08894400","OBJECT_NAME":"STARLINK-4591","APOAPSIS":"540.456","INCLINATION":"53.2134","TIME_SYSTEM":"UTC","CLASSIFICATION_TYPE":"U","EPOCH":"2023-03-09T13:04:07.978656","PERIAPSIS":"538.703","BSTAR":"0.00319620000000"},{"DECAY_DATE":null,"NORAD_CAT_ID":"53608","MEAN_MOTION_DDOT":"0.0000000000000","ELEMENT_SET_NO":"999","MEAN_ANOMALY":"258.8167","ARG_OF_PERICENTER":"101.2969","CENTER_NAME":"EARTH","OBJECT_ID":"2022-104W","MEAN_ELEMENT_THEORY":"SGP4","PERIOD":"95.436","LAUNCH_DATE":"2022-08-28","REV_AT_EPOCH":"3019","COUNTRY_CODE":"US","RCS_SIZE":"LARGE","RA_OF_ASC_NODE":"113.8505","MEAN_MOTION_DOT":"0.00014054","OBJECT_NAME":"STARLINK-4647","APOAPSIS":"540.577","FILE":"3855951","MEAN_MOTION":"15.08857507","EPHEMERIS_TYPE":"0","EPOCH":"2023-03-09T19:44:55.288896","PERIAPSIS":"538.806","BSTAR":"0.00089891000000","INCLINATION":"53.2161","TIME_SYSTEM":"UTC","CLASSIFICATION_TYPE":"U","SITE":"AFETR","ECCENTRICITY":"0.00012800","SEMIMAJOR_AXIS":"6917.827","TLE_LINE1":"1 53608U 22104W   23068.82286214  .00014054  00000-0  89891-3 0  9995","REF_FRAME":"TEME","TLE_LINE2":"2 53608  53.2161 113.8505 0001280 101.2969 258.8167 15.08857507 30190","GP_ID":"227770616","OBJECT_TYPE":"PAYLOAD"},{"INCLINATION":"53.2167","TIME_SYSTEM":"UTC","CLASSIFICATION_TYPE":"U","EPOCH":"2023-03-09T12:16:23.446272","PERIAPSIS":"538.882","BSTAR":"0.00124300000000","EPHEMERIS_TYPE":"0","FILE":"3855951","MEAN_MOTION":"15.08870651","OBJECT_NAME":"STARLINK-4660","APOAPSIS":"540.421","OBJECT_TYPE":"PAYLOAD","REF_FRAME":"TEME","GP_ID":"227770865","TLE_LINE2":"2 53609  53.2167 119.7559 0001112 110.7456 249.3655 15.08870651 30205","ECCENTRICITY":"0.00011120","SITE":"AFETR","TLE_LINE1":"1 53609U 22104X   23068.51138248  .00019566  00000-0  12430-2 0  9992","SEMIMAJOR_AXIS":"6917.787","OBJECT_ID":"2022-104X","MEAN_ANOMALY":"249.3655","ARG_OF_PERICENTER":"110.7456","CENTER_NAME":"EARTH","DECAY_DATE":null,"ELEMENT_SET_NO":"999","MEAN_MOTION_DDOT":"0.0000000000000","NORAD_CAT_ID":"53609","RCS_SIZE":"LARGE","MEAN_MOTION_DOT":"0.00019566","RA_OF_ASC_NODE":"119.7559","LAUNCH_DATE":"2022-08-28","REV_AT_EPOCH":"3020","COUNTRY_CODE":"US","PERIOD":"95.436","MEAN_ELEMENT_THEORY":"SGP4"},{"ECCENTRICITY":"0.00017220","SITE":"AFETR","TLE_LINE1":"1 53610U 22104Y   23068.81645012  .00039889  00000-0  25079-2 0  9992","SEMIMAJOR_AXIS":"6917.777","OBJECT_TYPE":"PAYLOAD","REF_FRAME":"TEME","TLE_LINE2":"2 53610  53.2170 113.8055 0001722  76.3358 283.7826 15.08873717 30198","GP_ID":"227771612","FILE":"3855951","MEAN_MOTION":"15.08873717","EPHEMERIS_TYPE":"0","OBJECT_NAME":"STARLINK-4610","APOAPSIS":"540.834","INCLINATION":"53.2170","CLASSIFICATION_TYPE":"U","TIME_SYSTEM":"UTC","EPOCH":"2023-03-09T19:35:41.290368","PERIAPSIS":"538.451","BSTAR":"0.00250790000000","LAUNCH_DATE":"2022-08-28","REV_AT_EPOCH":"3019","COUNTRY_CODE":"US","MEAN_ELEMENT_THEORY":"SGP4","PERIOD":"95.435","RCS_SIZE":"LARGE","MEAN_MOTION_DOT":"0.00039889","RA_OF_ASC_NODE":"113.8055","DECAY_DATE":null,"MEAN_MOTION_DDOT":"0.0000000000000","NORAD_CAT_ID":"53610","ELEMENT_SET_NO":"999","OBJECT_ID":"2022-104Y","MEAN_ANOMALY":"283.7826","ARG_OF_PERICENTER":"76.3358","CENTER_NAME":"EARTH"},{"ECCENTRICITY":"0.00005660","SITE":"AFETR","SEMIMAJOR_AXIS":"6917.757","TLE_LINE1":"1 53611U 22104Z   23068.82654328  .00033396  00000-0  21042-2 0  9997","REF_FRAME":"TEME","GP_ID":"227771366","TLE_LINE2":"2 53611  53.2178 113.8739 0000566  83.8740 276.2317 15.08880490 30311","OBJECT_TYPE":"PAYLOAD","OBJECT_NAME":"STARLINK-4650","APOAPSIS":"540.013","FILE":"3855951","MEAN_MOTION":"15.08880490","EPHEMERIS_TYPE":"0","PERIAPSIS":"539.230","EPOCH":"2023-03-09T19:50:13.339392","BSTAR":"0.00210420000000","INCLINATION":"53.2178","TIME_SYSTEM":"UTC","CLASSIFICATION_TYPE":"U","MEAN_ELEMENT_THEORY":"SGP4","PERIOD":"95.435","LAUNCH_DATE":"2022-08-28","REV_AT_EPOCH":"3031","COUNTRY_CODE":"US","RCS_SIZE":"LARGE","MEAN_MOTION_DOT":"0.00033396","RA_OF_ASC_NODE":"113.8739","DECAY_DATE":null,"NORAD_CAT_ID":"53611","MEAN_MOTION_DDOT":"0.0000000000000","ELEMENT_SET_NO":"999","MEAN_ANOMALY":"276.2317","ARG_OF_PERICENTER":"83.8740","CENTER_NAME":"EARTH","OBJECT_ID":"2022-104Z"},{"RA_OF_ASC_NODE":"113.7760","MEAN_MOTION_DOT":"0.00029158","RCS_SIZE":"LARGE","COUNTRY_CODE":"US","REV_AT_EPOCH":"3019","LAUNCH_DATE":"2022-08-28","PERIOD":"95.437","MEAN_ELEMENT_THEORY":"SGP4","OBJECT_ID":"2022-104AA","ARG_OF_PERICENTER":"92.3620","CENTER_NAME":"EARTH","MEAN_ANOMALY":"267.7557","ELEMENT_SET_NO":"999","MEAN_MOTION_DDOT":"0.0000000000000","NORAD_CAT_ID":"53612","DECAY_DATE":null,"OBJECT_TYPE":"PAYLOAD","TLE_LINE2":"2 53612  53.2173 113.7760 0001615  92.3620 267.7557 15.08855464 30198","GP_ID":"227770116","REF_FRAME":"TEME","SEMIMAJOR_AXIS":"6917.833","TLE_LINE1":"1 53612U 22104AA  23068.81180957  .00029158  00000-0  18418-2 0  9993","ECCENTRICITY":"0.00016150","SITE":"AFETR","CLASSIFICATION_TYPE":"U","TIME_SYSTEM":"UTC","INCLINATION":"53.2173","BSTAR":"0.00184180000000","EPOCH":"2023-03-09T19:29:00.346848","PERIAPSIS":"538.581","EPHEMERIS_TYPE":"0","MEAN_MOTION":"15.08855464","FILE":"3855951","APOAPSIS":"540.815","OBJECT_NAME":"STARLINK-4658"},{"OBJECT_ID":"2022-104AB","MEAN_ANOMALY":"275.1296","CENTER_NAME":"EARTH","ARG_OF_PERICENTER":"84.9839","DECAY_DATE":null,"ELEMENT_SET_NO":"999","MEAN_MOTION_DDOT":"0.0000000000000","NORAD_CAT_ID":"53613","RCS_SIZE":"LARGE","MEAN_MOTION_DOT":"-0.00011992","RA_OF_ASC_NODE":"113.8270","LAUNCH_DATE":"2022-08-28","REV_AT_EPOCH":"3019","COUNTRY_CODE":"US","PERIOD":"95.436","MEAN_ELEMENT_THEORY":"SGP4","INCLINATION":"53.2161","CLASSIFICATION_TYPE":"U","TIME_SYSTEM":"UTC","EPOCH":"2023-03-09T19:39:36.904896","PERIAPSIS":"538.800","BSTAR":"-0.00073607000000","EPHEMERIS_TYPE":"0","FILE":"3855951","MEAN_MOTION":"15.08865868","OBJECT_NAME":"STARLINK-4655","APOAPSIS":"540.532","OBJECT_TYPE":"PAYLOAD","REF_FRAME":"TEME","TLE_LINE2":"2 53613  53.2161 113.8270 0001252  84.9839 275.1296 15.08865868 30191","GP_ID":"227770365","ECCENTRICITY":"0.00012520","SITE":"AFETR","SEMIMAJOR_AXIS":"6917.801","TLE_LINE1":"1 53613U 22104AB  23068.81917714 -.00011992  00000-0 -73607-3 0  9994"},{"SITE":"AFETR","ECCENTRICITY":"0.00012170","SEMIMAJOR_AXIS":"6917.848","TLE_LINE1":"1 53616U 22104AE  23068.82103830  .00009524  00000-0  61549-3 0  9992","OBJECT_TYPE":"PAYLOAD","REF_FRAME":"TEME","TLE_LINE2":"2 53616  53.2152 103.6666 0001217 101.0963 259.0166 15.08850533 30448","GP_ID":"227771112","EPHEMERIS_TYPE":"0","FILE":"3855951","MEAN_MOTION":"15.08850533","OBJECT_NAME":"STARLINK-4605","APOAPSIS":"540.555","INCLINATION":"53.2152","CLASSIFICATION_TYPE":"U","TIME_SYSTEM":"UTC","PERIAPSIS":"538.871","EPOCH":"2023-03-09T19:42:17.709120","BSTAR":"0.00061549000000","REV_AT_EPOCH":"3044","LAUNCH_DATE":"2022-08-28","COUNTRY_CODE":"US","PERIOD":"95.437","MEAN_ELEMENT_THEORY":"SGP4","RCS_SIZE":"LARGE","RA_OF_ASC_NODE":"103.6666","MEAN_MOTION_DOT":"0.00009524","DECAY_DATE":null,"ELEMENT_SET_NO":"999","NORAD_CAT_ID":"53616","MEAN_MOTION_DDOT":"0.0000000000000","OBJECT_ID":"2022-104AE","MEAN_ANOMALY":"259.0166","CENTER_NAME":"EARTH","ARG_OF_PERICENTER":"101.0963"}];
